ORBCOMM FM103           
1 40091U 14040F   25340.56378359  .00001446  00000+0  34456-3 0  9992
2 40091  47.0059 283.5481 0002185 332.6763  27.4008 14.58517972589268
ORBCOMM FM114           
1 41179U 15081A   25340.64919573  .00001156  00000+0  28263-3 0  9991
2 41179  47.0011 192.1013 0001653  51.4592 308.6442 14.58550301529640
ORBCOMM FM119           
1 41180U 15081B   25340.64498444  .00001520  00000+0  36043-3 0  9992
2 41180  47.0000 101.4789 0000788 167.9275 192.1629 14.58484739530895
ORBCOMM FM105           
1 41181U 15081C   25340.42557379  .00000679  00000+0  23572-3 0  9999
2 41181  47.0002 124.2855 0001451 353.4085   6.6776 14.45395098525660
ORBCOMM FM110           
1 41182U 15081D   25340.63922562  .00001331  00000+0  31981-3 0  9992
2 41182  47.0003 191.6546 0002794 266.2755  93.7812 14.58561528529516
ORBCOMM FM118           
1 41183U 15081E   25340.53667663  .00001145  00000+0  28007-3 0  9998
2 41183  47.0027 192.4353 0002977 229.1238 130.9390 14.58560162529603
ORBCOMM FM112           
1 41184U 15081F   25340.60788922  .00002535  00000+0  57598-3 0  9990
2 41184  46.9979 100.6364 0000901  26.3517 333.7414 14.58560247530834
ORBCOMM FM113           
1 41185U 15081G   25340.65361840  .00001966  00000+0  45486-3 0  9992
2 41185  46.9999 100.7739 0000522  48.9430 311.1501 14.58552649530820
